{
    "links": {
        "self": "http://www.neowsapp.com/rest/v1/neo/3780767?api_key=iIulBulltgU6a56xZRHN4H3l9WmuAYTsLGpBGhQ2"
    },
    "id": "3780767",
    "neo_reference_id": "3780767",
    "name": "(2017 QC2)",
    "designation": "2017 QC2",
    "nasa_jpl_url": "http://ssd.jpl.nasa.gov/sbdb.cgi?sstr=3780767",
    "absolute_magnitude_h": 22.5,
    "estimated_diameter": {
        "kilometers": {
            "estimated_diameter_min": 0.0840533402,
            "estimated_diameter_max": 0.1879489824
        },
        "meters": {
            "estimated_diameter_min": 84.0533402073,
            "estimated_diameter_max": 187.9489824394
        },
        "miles": {
            "estimated_diameter_min": 0.0522283081,
            "estimated_diameter_max": 0.1167860472
        },
        "feet": {
            "estimated_diameter_min": 275.7655606856,
            "estimated_diameter_max": 616.6305395464
        }
    },
    "is_potentially_hazardous_asteroid": false,
    "close_approach_data": [
        {
            "close_approach_date": "2017-09-04",
            "close_approach_date_full": "2017-Sep-04 02:12",
            "epoch_date_close_approach": 1504491120000,
            "relative_velocity": {
                "kilometers_per_second": "19.3468937116",
                "kilometers_per_hour": "69648.8173617244",
                "miles_per_hour": "43277.0665434559"
            },
            "miss_distance": {
                "astronomical": "0.1601915825",
                "lunar": "62.3145255925",
                "kilometers": "23964319.533929275",
                "miles": "14890737.665702995"
            },
            "orbiting_body": "Earth"
        }
    ],
    "orbital_data": {
        "orbit_id": "4",
        "orbit_determination_date": "2017-09-15 06:23:19",
        "first_observation_date": "2017-08-16",
        "last_observation_date": "2017-08-24",
        "data_arc_in_days": 8,
        "observations_used": 33,
        "orbit_uncertainty": "8",
        "minimum_orbit_intersection": ".152304",
        "jupiter_tisserand_invariant": "3.845",
        "epoch_osculation": "2457982.5",
        "eccentricity": ".5087880335398852",
        "semi_major_axis": "1.76127352258251",
        "inclination": "27.25118865005729",
        "ascending_node_longitude": "151.8680971793636",
        "orbital_period": "853.7655689521423",
        "perihelion_distance": ".8651586305018883",
        "perihelion_argument": "263.3035479358929",
        "aphelion_distance": "2.657388414663132",
        "perihelion_time": "2458055.723170290628",
        "mean_anomaly": "329.1246142228726",
        "mean_motion": ".4216614174800246",
        "equinox": "J2000",
        "orbit_class": {
            "orbit_class_type": "APO",
            "orbit_class_description": "Near-Earth asteroid orbits which cross the Earth’s orbit similar to that of 1862 Apollo",
            "orbit_class_range": "a (semi-major axis) > 1.0 AU; q (perihelion) < 1.017 AU"
        }
    },
    "is_sentry_object": false
}